NORAD_CAT_ID,OBJECT_NAME,OBJECT_TYPE,EPOCH,MEAN_MOTION,ECCENTRICITY,INCLINATION,RA_OF_ASC_NODE,ARG_OF_PERICENTER,MEAN_ANOMALY,BSTAR,MEAN_MOTION_DOT,MEAN_MOTION_DDOT,TLE_LINE0,TLE_LINE1,TLE_LINE2,SEMIMAJOR_AXIS,PERIOD,APOGEE,PERIGEE,DECAYED
54759.0,STARLINK-5215,PAYLOAD,2023-01-22 22:00:00,15.49906039,0.0001028,53.2146,128.5176,77.5081,26.1634,-0.00067098,-0.00038374,0.0,0 STARLINK-5215,1 54759U 22175B   23022.91667824 -.00038374  00000-0 -67098-3 0  9999,2 54759  53.2146 128.5176 0001028  77.5081  26.1634 15.49906039  5409,6795.138000000001,92.909,417.701,416.304,0.0
54759.0,STARLINK-5215,PAYLOAD,2023-01-23 14:00:01,15.49882085,0.0001198,53.2149,125.3319,78.5045,147.0001,-0.0001888,-0.0001115,0.0,0 STARLINK-5215,1 54759U 22175B   23023.58334491 -.00011150  00000-0 -18880-3 0  9992,2 54759  53.2149 125.3319 0001198  78.5045 147.0001 15.49882085  5501,6795.2080000000005,92.91,417.887,416.259,0.0
54759.0,STARLINK-5215,PAYLOAD,2023-01-24 08:00:01,15.4989165,0.0001171999999999,53.2147,121.7462,93.3493,359.2087,-1.8881e-05,-1.523e-05,0.0,0 STARLINK-5215,1 54759U 22175B   23024.33334491 -.00001523  00000-0 -18881-4 0  9991,2 54759  53.2147 121.7462 0001172  93.3493 359.2087 15.49891650  5624,6795.18,92.91,417.841,416.2480000000001,0.0
54759.0,STARLINK-5215,PAYLOAD,2023-01-25 08:00:01,15.50103123,9.13e-05,53.214,116.9669,99.2669,176.0004,-0.0154389999999999,-0.00809808,0.0,0 STARLINK-5215,1 54759U 22175B   23025.33334491 -.00809808  00000-0 -15439-1 0  9997,2 54759  53.2140 116.9669 0000913  99.2669 176.0004 15.50103123  5788,6794.562,92.897,417.047,415.806,0.0
54759.0,STARLINK-5215,PAYLOAD,2023-01-25 14:00:01,15.49663911,0.0001042999999999,53.2139,115.7735,82.5122,148.4464,-0.0169449999999999,-0.0086932,0.0,0 STARLINK-5215,1 54759U 22175B   23025.58334491 -.00869320  00000-0 -16945-1 0  9992,2 54759  53.2139 115.7735 0001043  82.5122 148.4464 15.49663911  1302,6795.845,92.923,418.419,417.002,0.0
54759.0,STARLINK-5215,PAYLOAD,2023-01-25 22:00:00,15.49055603,0.0001042999999999,53.2137,114.1804,86.5184,204.708,-0.0189949999999999,-0.00959369,0.0,0 STARLINK-5215,1 54759U 22175B   23025.91667824 -.00959369  00000-0 -18995-1 0  9998,2 54759  53.2137 114.1804 0001043  86.5184 204.7080 15.49055603  5871,6797.624,92.96,420.198,418.78,0.0
54759.0,STARLINK-5215,PAYLOAD,2023-01-26 14:00:01,15.47711594,0.0001159,53.2141,111.0023,74.9214,334.5237,-0.018092,-0.00866622,0.0,0 STARLINK-5215,1 54759U 22175B   23026.58334491 -.00866622  00000-0 -18092-1 0  9990,2 54759  53.2141 111.0023 0001159  74.9214 334.5237 15.47711594  1304,6801.559,93.041,424.213,422.636,0.0
54759.0,STARLINK-5215,PAYLOAD,2023-01-26 18:00:00,15.4742652,0.0001174,53.2138,110.2084,79.5445,178.9493,-0.019658,-0.0093935,0.0,0 STARLINK-5215,1 54759U 22175B   23026.75001157 -.00939350  00000-0 -19658-1 0  9997,2 54759  53.2138 110.2084 0001174  79.5445 178.9493 15.47426520  6000,6802.395,93.058,425.0580000000001,423.461,0.0
54759.0,STARLINK-5215,PAYLOAD,2023-01-27 14:00:01,15.45756817,0.0001368,53.2144,106.2451,79.8152,141.0777,-0.019246,-0.00873257,0.0,0 STARLINK-5215,1 54759U 22175B   23027.58334491 -.00873257  00000-0 -19246-1 0  9995,2 54759  53.2144 106.2451 0001368  79.8152 141.0777 15.45756817  1300,6807.292,93.158,430.088,428.226,0.0
54759.0,STARLINK-5215,PAYLOAD,2023-01-27 22:00:00,15.45131104,0.00013,53.2143,104.6611,90.6252,185.85,-0.021027,-0.00928828,0.0,0 STARLINK-5215,1 54759U 22175B   23027.91667824 -.00928828  00000-0 -21027-1 0  9996,2 54759  53.2143 104.6611 0001300  90.6252 185.8500 15.45131104  6184,6809.13,93.196,431.88,430.11,0.0
54759.0,STARLINK-5215,PAYLOAD,2023-01-28 14:00:01,15.43808387,0.0001241,53.2141,101.5022,80.7873,304.5115,-0.020759,-0.00880396,0.0,0 STARLINK-5215,1 54759U 22175B   23028.58334491 -.00880396  00000-0 -20759-1 0  9999,2 54759  53.2141 101.5022 0001241  80.7873 304.5115 15.43808387  1300,6813.019,93.276,435.729,434.038,0.0
54759.0,STARLINK-5215,PAYLOAD,2023-01-28 22:00:00,15.43168768,0.0001237,53.2139,99.9228,86.8281,351.7097,-0.021983,-0.00909725,0.0,0 STARLINK-5215,1 54759U 22175B   23028.91667824 -.00909725  00000-0 -21983-1 0  9993,2 54759  53.2139  99.9228 0001237  86.8281 351.7097 15.43168768  1305,6814.901,93.314,437.609,435.923,0.0
54759.0,STARLINK-5215,PAYLOAD,2023-01-29 00:00:00,15.42981055,0.0001344,53.2137,99.5282,91.0976,90.6342,-0.020868,-0.00862008,0.0,0 STARLINK-5215,1 54759U 22175B   23029.00001157 -.00862008  00000-0 -20868-1 0  9998,2 54759  53.2137  99.5282 0001344  91.0976  90.6342 15.42981055  6349,6815.454,93.326,438.235,436.403,0.0
54759.0,STARLINK-5215,PAYLOAD,2023-01-29 16:00:00,15.41705229,0.000128,53.2134,96.3798,85.5752,199.8818,-0.022775,-0.00898074,0.0,0 STARLINK-5215,1 54759U 22175B   23029.66667824 -.00898074  00000-0 -22775-1 0  9990,2 54759  53.2134  96.3798 0001280  85.5752 199.8818 15.41705229  6450,6819.213,93.403,441.951,440.205,0.0
54759.0,STARLINK-5215,PAYLOAD,2023-01-29 22:00:01,15.41214916,0.0001326,53.2136,95.1985,92.4795,141.1427,-0.023404,-0.00907063,0.0,0 STARLINK-5215,1 54759U 22175B   23029.91668981 -.00907063  00000-0 -23404-1 0  9992,2 54759  53.2136  95.1985 0001326  92.4795 141.1427 15.41214916  1305,6820.66,93.433,443.429,441.62,0.0
54759.0,STARLINK-5215,PAYLOAD,2023-01-30 10:00:00,15.40239687,0.0001363,53.2137,92.8428,83.2023,45.2242,-0.024293,-0.0091104,0.0,0 STARLINK-5215,1 54759U 22175B   23030.41667824 -.00911040  00000-0 -24293-1 0  9991,2 54759  53.2137  92.8428 0001363  83.2023  45.2242 15.40239687  6568,6823.538,93.492,446.333,444.473,0.0
54759.0,STARLINK-5215,PAYLOAD,2023-01-30 14:00:01,15.39903094,0.0001315,53.2139,92.0585,84.0343,248.9564,-0.023642,-0.00879409,0.0,0 STARLINK-5215,1 54759U 22175B   23030.58334491 -.00879409  00000-0 -23642-1 0  9999,2 54759  53.2139  92.0585 0001315  84.0343 248.9564 15.39903094  1301,6824.533,93.512,447.295,445.5,0.0
54759.0,STARLINK-5215,PAYLOAD,2023-01-31 00:00:00,15.39081017,0.0001323,53.2141,90.0961,89.2287,34.327,-0.024036,-0.00870797,0.0,0 STARLINK-5215,1 54759U 22175B   23031.00001157 -.00870797  00000-0 -24036-1 0  9996,2 54759  53.2141  90.0961 0001323  89.2287  34.3270 15.39081017  1306,6826.963,93.562,449.731,447.924,0.0
54759.0,STARLINK-5215,PAYLOAD,2023-01-31 14:00:01,15.37946167,0.0001405,53.2145,87.3576,77.0887,39.1892,-0.024986,-0.00871993,0.0,0 STARLINK-5215,1 54759U 22175B   23031.58334491 -.00871993  00000-0 -24986-1 0  9992,2 54759  53.2145  87.3576 0001405  77.0887  39.1892 15.37946167  1300,6830.321,93.631,453.145,451.226,0.0
54759.0,STARLINK-5215,PAYLOAD,2023-01-31 16:00:00,15.37812573,0.0001402,53.2142,86.9663,82.9753,134.9149,-0.026551,-0.00918465,0.0,0 STARLINK-5215,1 54759U 22175B   23031.66667824 -.00918465  00000-0 -26551-1 0  9996,2 54759  53.2142  86.9663 0001402  82.9753 134.9149 15.37812573  6760,6830.716,93.639,453.539,451.623,0.0
54759.0,STARLINK-5215,PAYLOAD,2023-01-31 22:00:00,15.372993,0.000136,53.2147,85.7919,86.2394,76.2398,-0.026064,-0.00889123,0.0,0 STARLINK-5215,1 54759U 22175B   23031.91667824 -.00889123  00000-0 -26064-1 0  9991,2 54759  53.2147  85.7919 0001360  86.2394  76.2398 15.37299300  1303,6832.236,93.671,455.031,453.172,0.0
54759.0,STARLINK-5215,PAYLOAD,2023-02-01 14:00:01,15.35995606,0.0001447,53.215,82.6707,82.8506,169.6703,-0.02669,-0.00874033,0.0,0 STARLINK-5215,1 54759U 22175B   23032.58334491 -.00874033  00000-0 -26690-1 0  9995,2 54759  53.2150  82.6707 0001447  82.8506 169.6703 15.35995606  6909,6836.102,93.75,458.956,456.978,0.0
54759.0,STARLINK-5215,PAYLOAD,2023-02-02 06:00:00,15.34731555,0.0001347,53.2154,79.5523,98.4309,240.9995,-0.030309,-0.00946309,0.0,0 STARLINK-5215,1 54759U 22175B   23033.25001157 -.00946309  00000-0 -30309-1 0  9998,2 54759  53.2154  79.5523 0001347  98.4309 240.9995 15.34731555  7005,6839.855,93.827,462.641,460.799,0.0
54759.0,STARLINK-5215,PAYLOAD,2023-02-02 14:00:01,15.34049976,0.0001268,53.2151,77.9975,83.6373,298.085,-0.028804,-0.00885136,0.0,0 STARLINK-5215,1 54759U 22175B   23033.58334491 -.00885136  00000-0 -28804-1 0  9991,2 54759  53.2151  77.9975 0001268  83.6373 298.0850 15.34049976  1304,6841.881,93.869,464.613,462.878,0.0
54759.0,STARLINK-5215,PAYLOAD,2023-02-03 02:00:01,15.33085165,0.0001445,53.215,75.6638,99.3912,164.2898,-0.030413,-0.00904642,0.0,0 STARLINK-5215,1 54759U 22175B   23034.08334491 -.00904642  00000-0 -30413-1 0  9990,2 54759  53.2150  75.6638 0001445  99.3912 164.2898 15.33085165  7136,6844.751,93.928,467.605,465.627,0.0
54759.0,STARLINK-5215,PAYLOAD,2023-02-03 14:00:01,15.32098589,0.0001455,53.2146,73.338,79.9737,63.9124,-0.030767,-0.00888455,0.0,0 STARLINK-5215,1 54759U 22175B   23034.58334491 -.00888455  00000-0 -30767-1 0  9990,2 54759  53.2146  73.3380 0001455  79.9737  63.9124 15.32098589  1303,6847.689,93.989,470.55,468.558,0.0
54759.0,STARLINK-5215,PAYLOAD,2023-02-03 22:00:00,15.31435046,0.0001437,53.2145,71.7861,90.7055,92.3463,-0.030978,-0.00877038,0.0,0 STARLINK-5215,1 54759U 22175B   23034.91667824 -.00877038  00000-0 -30978-1 0  9995,2 54759  53.2145  71.7861 0001437  90.7055  92.3463 15.31435046  7256,6849.667,94.029,472.516,470.548,0.0
54759.0,STARLINK-5215,PAYLOAD,2023-02-04 00:00:00,15.31278308,0.000136,53.2144,71.3986,97.3165,185.3984,-0.031334,-0.00882298,0.0,0 STARLINK-5215,1 54759U 22175B   23035.00001157 -.00882298  00000-0 -31334-1 0  9998,2 54759  53.2144  71.3986 0001360  97.3165 185.3984 15.31278308  1306,6850.134,94.039,472.931,471.068,0.0
54759.0,STARLINK-5215,PAYLOAD,2023-02-04 14:00:01,15.30154013,0.0001395,53.2139,68.6925,85.1218,173.8845,-0.033242,-0.00901975,0.0,0 STARLINK-5215,1 54759U 22175B   23035.58334491 -.00901975  00000-0 -33242-1 0  9995,2 54759  53.2139  68.6925 0001395  85.1218 173.8845 15.30154013  7369,6853.489,94.108,476.31,474.398,0.0
54759.0,STARLINK-5215,PAYLOAD,2023-02-04 22:00:00,15.29479595,0.0001354,53.2139,67.1452,95.3517,200.477,-0.03274,-0.00872436,0.0,0 STARLINK-5215,1 54759U 22175B   23035.91667824 -.00872436  00000-0 -32740-1 0  9992,2 54759  53.2139  67.1452 0001354  95.3517 200.4770 15.29479595  1303,6855.504,94.15,478.297,476.441,0.0
